OBJECT_NAME,OBJECT_ID,EPOCH,MEAN_MOTION,ECCENTRICITY,INCLINATION,RA_OF_ASC_NODE,ARG_OF_PERICENTER,MEAN_ANOMALY,EPHEMERIS_TYPE,CLASSIFICATION_TYPE,NORAD_CAT_ID,ELEMENT_SET_NO,REV_AT_EPOCH,BSTAR,MEAN_MOTION_DOT,MEAN_MOTION_DDOT
ONEWEB-0236,2021-045AG,2026-07-13T15:27:03.739392,13.15548481,.00021686,87.8986,253.9344,95.7493,264.3885,0,U,48797,999,24773,-.15230905E-3,-.45E-6,0
ONEWEB-0248,2021-045AH,2026-07-12T16:01:30.820512,13.15548836,.00024045,87.8996,254.1153,108.5777,251.5614,0,U,48798,999,24776,-.15477156E-3,-.45E-6,0
ONEWEB-0225,2021-045AJ,2026-07-13T14:27:44.349696,13.15547989,.00022048,87.8988,253.9364,113.7106,246.4256,0,U,48799,999,24789,.17868669E-3,.8E-6,0
ONEWEB-0215,2021-045AK,2026-07-12T15:50:06.189504,13.15549106,.00023979,87.9000,254.1074,111.9675,248.1710,0,U,48800,999,24764,-.31681021E-3,-.106E-5,0
ONEWEB-0216,2021-045AL,2026-07-12T16:03:48.119616,13.15547853,.00019535,87.8984,254.1212,98.0014,262.1338,0,U,48801,999,24765,-.1363235E-3,-.38E-6,0
ONEWEB-0239,2021-045AM,2026-07-13T14:04:55.243200,13.15547321,.00026543,87.8983,253.9410,113.5261,246.6148,0,U,48802,999,24781,-.24551049E-3,-.8E-6,0
ONEWEB-0249,2021-060A,2026-07-13T11:59:43.715328,13.16592041,.0002172,87.9079,223.5513,96.2789,263.8590,0,U,48967,999,24307,-.10414308E-3,-.27E-6,0
ONEWEB-0250,2021-060B,2026-07-13T11:52:33.686112,13.25835037,.00030827,87.9080,221.2230,87.5284,272.6205,0,U,48968,999,24370,.98763715E-4,.57E-6,0
ONEWEB-0252,2021-060D,2026-07-13T14:33:39.374208,13.16594979,.00018369,87.9080,223.5224,96.8670,263.2670,0,U,48970,999,24313,.21861033E-3,.96E-6,0
ONEWEB-0253,2021-060E,2026-07-13T14:17:41.911872,13.16594636,.00021423,87.9090,223.5284,96.7805,263.3570,0,U,48971,999,24306,.15180078E-3,.71E-6,0
ONEWEB-0254,2021-060F,2026-07-13T12:41:56.995296,13.16593798,.00022716,87.9082,223.5412,97.4220,262.7169,0,U,48972,999,24305,.29621009E-3,.126E-5,0
ONEWEB-0255,2021-060G,2026-07-13T11:47:13.790112,13.16593965,.00021655,87.9081,223.5550,98.5322,261.6054,0,U,48973,999,24312,-.12603376E-3,-.35E-6,0
ONEWEB-0256,2021-060H,2026-07-13T14:14:15.419328,13.16592362,.00018478,87.9074,223.5377,92.8185,267.3158,0,U,48974,999,24310,.14655431E-3,.69E-6,0
ONEWEB-0257,2021-060J,2026-07-13T15:01:01.278336,13.16593502,.00020419,87.9089,223.5189,99.9252,260.2109,0,U,48975,999,24306,.13060359E-3,.63E-6,0
ONEWEB-0258,2021-060K,2026-07-13T15:03:18.110016,13.16594292,.00020978,87.9076,223.5321,92.9697,267.1674,0,U,48976,999,24307,.84830579E-4,.45E-6,0
ONEWEB-0259,2021-060L,2026-07-13T14:54:11.010528,13.16593786,.00022924,87.9091,223.5298,91.0223,269.1171,0,U,48977,999,24310,.46960388E-4,.31E-6,0
ONEWEB-0260,2021-060M,2026-07-13T14:41:37.072896,13.16595562,.00016813,87.9078,223.5330,94.1984,265.9339,0,U,48978,999,24308,.3223063E-3,.136E-5,0
ONEWEB-0261,2021-060N,2026-07-13T12:08:53.677248,13.16593764,.00020503,87.9070,223.5564,104.5284,255.6074,0,U,48979,999,24312,-.13860941E-3,-.4E-6,0
ONEWEB-0262,2021-060P,2026-07-13T15:19:15.696768,13.16593587,.0002458,87.9082,223.5154,94.3769,265.7643,0,U,48980,999,24310,-.18816944E-3,-.59E-6,0
ONEWEB-0263,2021-060Q,2026-07-13T14:15:25.210656,13.16593423,.00021488,87.9083,223.5360,104.2898,255.8471,0,U,48981,999,24306,.18544198E-3,.84E-6,0
ONEWEB-0264,2021-060R,2026-07-13T15:08:58.657344,13.16592423,.00019453,87.9075,223.5311,99.0916,261.0435,0,U,48982,999,24307,-.4559285E-4,-.5E-7,0
ONEWEB-0266,2021-060T,2026-07-13T12:00:53.638848,13.16595120,.00021219,87.9071,223.5497,92.6221,267.5153,0,U,48984,999,24304,-.54495566E-4,-.8E-7,0
ONEWEB-0267,2021-060U,2026-07-13T14:06:18.214848,13.16593731,.00020103,87.9079,223.5282,99.9468,260.1890,0,U,48985,999,24306,.38734166E-4,.28E-6,0
ONEWEB-0268,2021-060V,2026-07-13T15:10:08.417568,13.16593965,.00020033,87.9077,223.5286,94.6627,265.4733,0,U,48986,999,24333,-.21537129E-3,-.69E-6,0
ONEWEB-0269,2021-060W,2026-07-13T14:42:46.922976,13.16594121,.00020806,87.9076,223.5328,83.0121,277.1247,0,U,48987,999,24310,.29714824E-3,.126E-5,0
ONEWEB-0270,2021-060X,2026-07-13T15:07:49.229760,13.16613859,.00021367,87.9078,223.5304,99.3760,260.7613,0,U,48988,999,24314,.60732716E-2,.2336E-4,0
ONEWEB-0271,2021-060Y,2026-07-13T14:49:37.447392,13.16593974,.00020933,87.9077,223.5231,101.3222,258.8144,0,U,48989,999,24314,.15603046E-3,.73E-6,0
ONEWEB-0272,2021-060Z,2026-07-13T15:21:32.119776,13.16595319,.0001824,87.9080,223.5283,101.6219,258.5117,0,U,48990,999,24309,-.20146454E-3,-.64E-6,0
ONEWEB-0273,2021-060AA,2026-07-13T14:04:01.149888,13.16593625,.00021624,87.9068,223.5418,96.7328,263.4049,0,U,48991,999,24306,-.12289547E-3,-.34E-6,0
ONEWEB-0274,2021-060AB,2026-07-13T12:51:02.812608,13.16595341,.00015204,87.9074,223.5496,103.9727,256.1573,0,U,48992,999,24309,.2577299E-3,.111E-5,0
