ONEWEB-0236             
1 48797U 21045AG  26194.64379328 -.00000045  00000+0 -15231-3 0  9996
2 48797  87.8986 253.9344 0002168  95.7493 264.3885 13.15548481247736
ONEWEB-0248             
1 48798U 21045AH  26193.66771783 -.00000045  00000+0 -15477-3 0  9991
2 48798  87.8996 254.1153 0002404 108.5777 251.5614 13.15548836247765
ONEWEB-0225             
1 48799U 21045AJ  26194.60259664  .00000080  00000+0  17869-3 0  9990
2 48799  87.8988 253.9364 0002204 113.7106 246.4256 13.15547989247897
ONEWEB-0215             
1 48800U 21045AK  26193.65979386 -.00000106  00000+0 -31681-3 0  9996
2 48800  87.9000 254.1074 0002397 111.9675 248.1710 13.15549106247641
ONEWEB-0216             
1 48801U 21045AL  26193.66930694 -.00000038  00000+0 -13632-3 0  9997
2 48801  87.8984 254.1212 0001953  98.0014 262.1338 13.15547853247655
ONEWEB-0239             
1 48802U 21045AM  26194.58675050 -.00000080  00000+0 -24551-3 0  9991
2 48802  87.8983 253.9410 0002654 113.5261 246.6148 13.15547321247812
ONEWEB-0249             
1 48967U 21060A   26194.49981152 -.00000027  00000+0 -10414-3 0  9997
2 48967  87.9079 223.5513 0002172  96.2789 263.8590 13.16592041243071
ONEWEB-0250             
1 48968U 21060B   26194.49483433  .00000057  00000+0  98764-4 0  9993
2 48968  87.9080 221.2230 0003082  87.5284 272.6205 13.25835037243705
ONEWEB-0252             
1 48970U 21060D   26194.60670572  .00000096  00000+0  21861-3 0  9997
2 48970  87.9080 223.5224 0001836  96.8670 263.2670 13.16594979243139
ONEWEB-0253             
1 48971U 21060E   26194.59562398  .00000071  00000+0  15180-3 0  9992
2 48971  87.9090 223.5284 0002142  96.7805 263.3570 13.16594636243069
ONEWEB-0254             
1 48972U 21060F   26194.52913189  .00000126  00000+0  29621-3 0  9990
2 48972  87.9082 223.5412 0002271  97.4220 262.7169 13.16593798243050
ONEWEB-0255             
1 48973U 21060G   26194.49113183 -.00000035  00000+0 -12603-3 0  9996
2 48973  87.9081 223.5550 0002165  98.5322 261.6054 13.16593965243125
ONEWEB-0256             
1 48974U 21060H   26194.59323402  .00000069  00000+0  14655-3 0  9999
2 48974  87.9074 223.5377 0001847  92.8185 267.3158 13.16592362243101
ONEWEB-0257             
1 48975U 21060J   26194.62570924  .00000063  00000+0  13060-3 0  9990
2 48975  87.9089 223.5189 0002041  99.9252 260.2109 13.16593502243069
ONEWEB-0258             
1 48976U 21060K   26194.62729294  .00000045  00000+0  84831-4 0  9992
2 48976  87.9076 223.5321 0002097  92.9697 267.1674 13.16594292243072
ONEWEB-0259             
1 48977U 21060L   26194.62096077  .00000031  00000+0  46960-4 0  9995
2 48977  87.9091 223.5298 0002292  91.0223 269.1171 13.16593786243100
ONEWEB-0260             
1 48978U 21060M   26194.61223464  .00000136  00000+0  32231-3 0  9998
2 48978  87.9078 223.5330 0001681  94.1984 265.9339 13.16595562243083
ONEWEB-0261             
1 48979U 21060N   26194.50617682 -.00000040  00000+0 -13861-3 0  9990
2 48979  87.9070 223.5564 0002050 104.5284 255.6074 13.16593764243124
ONEWEB-0262             
1 48980U 21060P   26194.63837612 -.00000059  00000+0 -18817-3 0  9999
2 48980  87.9082 223.5154 0002458  94.3769 265.7643 13.16593587243105
ONEWEB-0263             
1 48981U 21060Q   26194.59404179  .00000084  00000+0  18544-3 0  9996
2 48981  87.9083 223.5360 0002148 104.2898 255.8471 13.16593423243069
ONEWEB-0264             
1 48982U 21060R   26194.63123446 -.00000005  00000+0 -45593-4 0  9997
2 48982  87.9075 223.5311 0001945  99.0916 261.0435 13.16592423243072
ONEWEB-0266             
1 48984U 21060T   26194.50062082 -.00000008  00000+0 -54496-4 0  9998
2 48984  87.9071 223.5497 0002121  92.6221 267.5153 13.16595120243042
ONEWEB-0267             
1 48985U 21060U   26194.58771082  .00000028  00000+0  38734-4 0  9991
2 48985  87.9079 223.5282 0002010  99.9468 260.1890 13.16593731243068
ONEWEB-0268             
1 48986U 21060V   26194.63204187 -.00000069  00000+0 -21537-3 0  9994
2 48986  87.9077 223.5286 0002003  94.6627 265.4733 13.16593965243335
ONEWEB-0269             
1 48987U 21060W   26194.61304309  .00000126  00000+0  29715-3 0  9998
2 48987  87.9076 223.5328 0002080  83.0121 277.1247 13.16594121243108
ONEWEB-0270             
1 48988U 21060X   26194.63043090  .00002336  00000+0  60733-2 0  9997
2 48988  87.9078 223.5304 0002136  99.3760 260.7613 13.16613859243145
ONEWEB-0271             
1 48989U 21060Y   26194.61779453  .00000073  00000+0  15603-3 0  9998
2 48989  87.9077 223.5231 0002093 101.3222 258.8144 13.16593974243145
ONEWEB-0272             
1 48990U 21060Z   26194.63995509 -.00000064  00000+0 -20146-3 0  9994
2 48990  87.9080 223.5283 0001824 101.6219 258.5117 13.16595319243094
ONEWEB-0273             
1 48991U 21060AA  26194.58612442 -.00000034  00000+0 -12290-3 0  9999
2 48991  87.9068 223.5418 0002162  96.7328 263.4049 13.16593625243066
ONEWEB-0274             
1 48992U 21060AB  26194.53544922  .00000111  00000+0  25773-3 0  9996
2 48992  87.9074 223.5496 0001520 103.9727 256.1573 13.16595341243092
